NORAD_CAT_ID,OBJECT_NAME,OBJECT_TYPE,EPOCH,MEAN_MOTION,ECCENTRICITY,INCLINATION,RA_OF_ASC_NODE,ARG_OF_PERICENTER,MEAN_ANOMALY,BSTAR,MEAN_MOTION_DOT,MEAN_MOTION_DDOT,TLE_LINE0,TLE_LINE1,TLE_LINE2,SEMIMAJOR_AXIS,PERIOD,APOGEE,PERIGEE,DECAYED
53433.0,STARLINK-4549,PAYLOAD,2022-12-19 09:32:04,15.08874596,0.0001559,53.2172,344.6964,60.7551,299.3597,0.0015158,0.00023941,0.0,0 STARLINK-4549,1 53433U 22097AX  22353.39727301  .00023941  00000-0  15158-2 0  9996,2 53433  53.2172 344.6964 0001559  60.7551 299.3597 15.08874596 21189,6917.775,95.435,540.7180000000002,538.561,0.0
53433.0,STARLINK-4549,PAYLOAD,2022-12-19 23:50:31,15.088738500000002,0.0001571999999999,53.2172,342.02,63.1479,296.9673,0.00077294,0.00012046,0.0,0 STARLINK-4549,1 53433U 22097AX  22353.99342375  .00012046  00000-0  77294-3 0  9990,2 53433  53.2172 342.0200 0001572  63.1479 296.9673 15.08873850 20814,6917.776999999999,95.435,540.729,538.554,0.0
53433.0,STARLINK-4549,PAYLOAD,2022-12-20 06:12:04,15.08851294,0.0001494,53.2173,340.8306,64.9639,295.1508,-0.00019496,-3.39e-05,0.0,0 STARLINK-4549,1 53433U 22097AX  22354.25838351 -.00003390  00000-0 -19496-3 0  9998,2 53433  53.2173 340.8306 0001494  64.9639 295.1508 15.08851294 21310,6917.846,95.437,540.744,538.677,0.0
53433.0,STARLINK-4549,PAYLOAD,2022-12-21 06:02:51,15.08846502,0.0001496,53.2174,336.3711,64.1133,296.0014,0.00014743,2.060000000000001e-05,0.0,0 STARLINK-4549,1 53433U 22097AX  22355.25198405  .00002060  00000-0  14743-3 0  9999,2 53433  53.2174 336.3711 0001496  64.1133 296.0014 15.08846502 21008,6917.861,95.437,540.76,538.691,0.0
53433.0,STARLINK-4549,PAYLOAD,2022-12-22 05:53:39,15.08827919,0.0001622,53.2173,331.9102,58.4044,301.7106,-0.00014188,-2.545e-05,0.0,0 STARLINK-4549,1 53433U 22097AX  22356.24559467 -.00002545  00000-0 -14188-3 0  9991,2 53433  53.2173 331.9102 0001622  58.4044 301.7106 15.08827919 21153,6917.917,95.438,540.904,538.66,0.0
53433.0,STARLINK-4549,PAYLOAD,2022-12-22 09:04:25,15.08834,0.0001629999999999,53.2173,331.3152,60.519,299.5964,-7.0249e-05,-1.406e-05,0.0,0 STARLINK-4549,1 53433U 22097AX  22356.37807363 -.00001406  00000-0 -70249-4 0  9992,2 53433  53.2173 331.3152 0001630  60.5190 299.5964 15.08834000 21635,6917.899,95.438,540.891,538.636,0.0
53433.0,STARLINK-4549,PAYLOAD,2022-12-22 15:25:58,15.08836577,0.0001536,53.2174,330.126,63.7836,296.3313,9.2612e-05,1.186e-05,0.0,0 STARLINK-4549,1 53433U 22097AX  22356.64303348  .00001186  00000-0  92612-4 0  9997,2 53433  53.2174 330.1260 0001536  63.7836 296.3313 15.08836577 21218,6917.891,95.438,540.818,538.693,0.0
53433.0,STARLINK-4549,PAYLOAD,2022-12-23 05:44:26,15.08837357,0.0001606,53.2178,327.4488,60.8744,299.2409,0.00013299,1.829e-05,0.0,0 STARLINK-4549,1 53433U 22097AX  22357.23919495  .00001829  00000-0  13299-3 0  9996,2 53433  53.2178 327.4488 0001606  60.8744 299.2409 15.08837357 21762,6917.888000000001,95.438,540.864,538.6419999999998,0.0
53433.0,STARLINK-4549,PAYLOAD,2022-12-24 00:49:04,15.08841709,0.0001588,53.2178,323.8805,67.7231,292.3929,0.00023765,3.496e-05,0.0,0 STARLINK-4549,1 53433U 22097AX  22358.03407502  .00003496  00000-0  23765-3 0  9997,2 53433  53.2178 323.8805 0001588  67.7231 292.3929 15.08841709 21421,6917.875,95.437,540.839,538.6419999999998,0.0
53433.0,STARLINK-4549,PAYLOAD,2022-12-24 10:21:22,15.08851825,0.0001569,53.2176,322.0968,66.9292,293.1866,0.00032488,4.888e-05,0.0,0 STARLINK-4549,1 53433U 22097AX  22358.43151011  .00004888  00000-0  32488-3 0  9990,2 53433  53.2176 322.0968 0001569  66.9292 293.1866 15.08851825 21943,6917.844,95.437,540.795,538.624,0.0
53433.0,STARLINK-4549,PAYLOAD,2022-12-24 21:29:04,15.0884778,0.0001393,53.2172,320.0145,66.2078,293.906,0.00017312,2.469e-05,0.0,0 STARLINK-4549,1 53433U 22097AX  22358.89518990  .00002469  00000-0  17312-3 0  9995,2 53433  53.2172 320.0145 0001393  66.2078 293.9060 15.08847780 22012,6917.857,95.437,540.685,538.758,0.0
53433.0,STARLINK-4549,PAYLOAD,2022-12-25 07:01:23,15.08843736,0.0001274999999999,53.2175,318.2314,65.0896,295.0229,0.00012299,1.67e-05,0.0,0 STARLINK-4549,1 53433U 22097AX  22359.29263078  .00001670  00000-0  12299-3 0  9996,2 53433  53.2175 318.2314 0001275  65.0896 295.0229 15.08843736 21618,6917.869000000002,95.437,540.616,538.852,0.0
53433.0,STARLINK-4549,PAYLOAD,2022-12-25 08:36:46,15.0884418,0.0001281,53.2175,317.934,64.8647,295.2477,0.00012316,1.673e-05,0.0,0 STARLINK-4549,1 53433U 22097AX  22359.35887034  .00001673  00000-0  12316-3 0  9990,2 53433  53.2175 317.9340 0001281  64.8647 295.2477 15.08844180 22084,6917.868,95.437,540.619,538.846,0.0
53433.0,STARLINK-4549,PAYLOAD,2022-12-26 08:27:33,15.08848287,0.0001425,53.2172,313.4731,63.0679,297.0459,0.00014165,1.968e-05,0.0,0 STARLINK-4549,1 53433U 22097AX  22360.35246965  .00001968  00000-0  14165-3 0  9995,2 53433  53.2172 313.4731 0001425  63.0679 297.0459 15.08848287 22231,6917.855,95.437,540.706,538.734,0.0
53433.0,STARLINK-4549,PAYLOAD,2022-12-26 21:10:38,15.08844895,0.0001519,53.2171,311.094,67.6945,292.4208,0.00016975,2.415e-05,0.0,0 STARLINK-4549,1 53433U 22097AX  22360.88239214  .00002415  00000-0  16975-3 0  9991,2 53433  53.2171 311.0940 0001519  67.6945 292.4208 15.08844895 21855,6917.865,95.437,540.781,538.68,0.0
53433.0,STARLINK-4549,PAYLOAD,2022-12-27 06:42:56,15.08858304,0.0001431,53.2171,309.3099,63.1492,296.9646,0.0004125,6.286e-05,0.0,0 STARLINK-4549,1 53433U 22097AX  22361.27982541  .00006286  00000-0  41250-3 0  9997,2 53433  53.2171 309.3099 0001431  63.1492 296.9646 15.08858304 21913,6917.824000000001,95.436,540.679,538.7,0.0
53433.0,STARLINK-4549,PAYLOAD,2022-12-27 22:36:47,15.08859109,0.0001553,53.217,306.3364,65.9493,294.1662,0.00029362,4.39e-05,0.0,0 STARLINK-4549,1 53433U 22097AX  22361.94222092  .00004390  00000-0  29362-3 0  9993,2 53433  53.2170 306.3364 0001553  65.9493 294.1662 15.08859109 22014,6917.821999999999,95.436,540.761,538.613,0.0
53433.0,STARLINK-4549,PAYLOAD,2022-12-28 06:33:43,15.08856587,0.0001563,53.2169,304.8498,65.7513,294.3642,0.00018555,2.668e-05,0.0,0 STARLINK-4549,1 53433U 22097AX  22362.27341795  .00002668  00000-0  18555-3 0  9990,2 53433  53.2169 304.8498 0001563  65.7513 294.3642 15.08856587 22528,6917.83,95.437,540.776,538.613,0.0
53433.0,STARLINK-4549,PAYLOAD,2022-12-29 06:24:31,15.08826887,0.0001539,53.2176,300.3891,62.574,297.5408,-0.00029455,-4.971e-05,0.0,0 STARLINK-4549,1 53433U 22097AX  22363.26703250 -.00004971  00000-0 -29455-3 0  9990,2 53433  53.2176 300.3891 0001539  62.5740 297.5408 15.08826887 22215,6917.92,95.438,540.85,538.721,0.0
53433.0,STARLINK-4549,PAYLOAD,2022-12-29 12:46:05,15.08822516,0.0001521999999999,53.2184,299.1994,61.2758,298.8387,-0.00020538,-3.554e-05,0.0,0 STARLINK-4549,1 53433U 22097AX  22363.53200866 -.00003554  00000-0 -20538-3 0  9994,2 53433  53.2184 299.1994 0001522  61.2758 298.8387 15.08822516 22259,6917.934,95.439,540.852,538.746,0.0
53433.0,STARLINK-4549,PAYLOAD,2022-12-30 04:39:57,15.08825656,0.0001515,53.2179,296.2263,64.4465,295.6684,-0.00011867,-2.175e-05,0.0,0 STARLINK-4549,1 53433U 22097AX  22364.19441192 -.00002175  00000-0 -11867-3 0  9999,2 53433  53.2179 296.2263 0001515  64.4465 295.6684 15.08825656 22817,6917.924,95.438,540.837,538.741,0.0
53433.0,STARLINK-4549,PAYLOAD,2022-12-30 12:36:52,15.08840698,0.0001526,53.218,294.7395,66.2826,293.8326,-9.1398e-05,-1.742e-05,0.0,0 STARLINK-4549,1 53433U 22097AX  22364.52560328 -.00001742  00000-0 -91398-4 0  9996,2 53433  53.2180 294.7395 0001526  66.2826 293.8326 15.08840698 22402,6917.878000000002,95.438,540.799,538.688,0.0
53433.0,STARLINK-4549,PAYLOAD,2022-12-31 04:30:42,15.08853041,0.0001585,53.2178,291.766,65.132,294.9837,0.00042358,6.462e-05,0.0,0 STARLINK-4549,1 53433U 22097AX  22365.18799089  .00006462  00000-0  42358-3 0  9990,2 53433  53.2178 291.7660 0001585  65.1320 294.9837 15.08853041 22509,6917.840999999999,95.437,540.802,538.609,0.0
53433.0,STARLINK-4549,PAYLOAD,2022-12-31 12:27:38,15.08863094,0.000169,53.2169,290.2789,64.7957,295.321,0.00071942,0.00011187,0.0,0 STARLINK-4549,1 53433U 22097AX  22365.51919535  .00011187  00000-0  71942-3 0  9998,2 53433  53.2169 290.2789 0001690  64.7957 295.3210 15.08863094 23019,6917.81,95.436,540.844,538.506,0.0
53433.0,STARLINK-4549,PAYLOAD,2023-01-01 04:21:28,15.08866714,4.17e-05,53.2159,287.3052,29.8411,330.2605,0.00026404,3.92e-05,0.0,0 STARLINK-4549,1 53433U 22097AX  23001.18158530  .00003920  00000-0  26404-3 0  9998,2 53433  53.2159 287.3052 0000417  29.8411 330.2605 15.08866714 22659,6917.799,95.436,539.952,539.375,0.0
53433.0,STARLINK-4549,PAYLOAD,2023-01-01 12:18:25,15.08836731,0.0001511,53.2159,285.8181,68.5996,291.5157,-0.0002714,-4.604e-05,0.0,0 STARLINK-4549,1 53433U 22097AX  23001.51279484 -.00004604  00000-0 -27140-3 0  9997,2 53433  53.2159 285.8181 0001511  68.5996 291.5157 15.08836731 22702,6917.89,95.438,540.8009999999998,538.71,0.0
53433.0,STARLINK-4549,PAYLOAD,2023-01-02 12:09:13,15.08846853,0.0001692,53.2166,281.3583,67.381,292.7361,0.0010998,0.00017262,0.0,0 STARLINK-4549,1 53433U 22097AX  23002.50640431  .00017262  00000-0  10998-2 0  9995,2 53433  53.2166 281.3583 0001692  67.3810 292.7361 15.08846853 23313,6917.859,95.437,540.895,538.554,0.0
53433.0,STARLINK-4549,PAYLOAD,2023-01-02 18:30:45,15.08849219,0.0001754999999999,53.2173,280.1701,68.2504,291.8675,0.00087127,0.00013609,0.0,0 STARLINK-4549,1 53433U 22097AX  23002.77136419  .00013609  00000-0  87127-3 0  9990,2 53433  53.2173 280.1701 0001755  68.2504 291.8675 15.08849219 22899,6917.852,95.437,540.931,538.503,0.0
53433.0,STARLINK-4549,PAYLOAD,2023-01-03 04:03:04,15.08850429,0.0001629,53.217,278.3849,65.501,294.6152,0.00045985,7.04e-05,0.0,0 STARLINK-4549,1 53433U 22097AX  23003.16880237  .00007040  00000-0  45985-3 0  9996,2 53433  53.2170 278.3849 0001629  65.5010 294.6152 15.08850429 22953,6917.849,95.437,540.84,538.587,0.0
